0 FENGYUN 1C DEB
1 31995U 99025CPY 13281.54023279  .00001177  00000-0  10266-2 0  2580
2 31995 098.4289 030.9521 0151824 305.6116 053.2058 13.82554489317803
0 FENGYUN 1C DEB
1 31995U 99025CPY 13284.07311773  .00001298  00000-0  11291-2 0  2594
2 31995 098.4272 033.2214 0151648 299.1796 059.4673 13.82563846318152
0 FENGYUN 1C DEB
1 31995U 99025CPY 13287.54678882  .00001362  00000-0  11783-2 0  2606
2 31995 098.4251 036.3253 0154820 289.8729 068.6435 13.82575589318631
0 FENGYUN 1C DEB
1 31995U 99025CPY 13289.50071082  .00001405  00000-0  12131-2 0  2610
2 31995 098.4248 038.0700 0155513 284.6807 073.7545 13.82582602318906
0 FENGYUN 1C DEB
1 31995U 99025CPY 13291.52699819  .00001502  00000-0  12939-2 0  2624
2 31995 098.4233 039.8871 0155922 279.4735 078.9477 13.82591518319182
0 FENGYUN 1C DEB
1 31995U 99025CPY 13292.54012838  .00001582  00000-0  13612-2 0  2635
2 31995 098.4217 040.7963 0155822 277.4141 080.9367 13.82596427319326
0 FENGYUN 1C DEB
1 31995U 99025CPY 13295.07297524  .00001637  00000-0  14203-2 0  2642
2 31995 098.4342 043.0896 0147771 268.6230 089.8663 13.82606370319675
